KUIPER-00044            
1 64505U 25134F   25355.95577814  .00003581  00000+0  49852-3 0  9998
2 64505  51.8988 230.3341 0011900  19.2307 340.9102 14.79914907 28370
KUIPER-00046            
1 64506U 25134G   25355.67697955  .00002984  00000+0  41276-3 0  9995
2 64506  51.8978 227.8984 0012844  27.6797 332.4847 14.80693046 28381
KUIPER-00047            
1 64507U 25134H   25355.98260270 -.00001633  00000+0 -17092-3 0  9997
2 64507  51.8988 198.0712 0009143  43.0076 317.1601 14.83011409 28828
KUIPER-00048            
1 64508U 25134J   25356.25987777 -.00001170  00000+0 -12439-3 0  9993
2 64508  51.8972 197.9787 0003752 172.9874 187.1142 14.79934296 28851
KUIPER-00049            
1 64509U 25134K   25356.04217409 -.00000353  00000+0 -17171-4 0  9990
2 64509  51.8989 212.4118 0002877  43.7653 316.3537 14.79930583 28633
KUIPER-00050            
1 64510U 25134L   25355.85882916  .00004754  00000+0  43335-3 0  9998
2 64510  51.8895 205.6062 0005081  66.3281 293.8222 14.96748250 28717
KUIPER-00051            
1 64511U 25134M   25355.77479211  .00002506  00000+0  35802-3 0  9993
2 64511  51.9000 211.1608 0002950  48.6557 311.4659 14.79888308 28627
KUIPER-00052            
1 64512U 25134N   25355.72605111  .00226079  00000+0  15591-2 0  9994
2 64512  51.8604 148.9458 0001717 134.0928 226.0216 15.73362133 29471
